OBJECT_NAME,OBJECT_ID,EPOCH,MEAN_MOTION,ECCENTRICITY,INCLINATION,RA_OF_ASC_NODE,ARG_OF_PERICENTER,MEAN_ANOMALY,EPHEMERIS_TYPE,CLASSIFICATION_TYPE,NORAD_CAT_ID,ELEMENT_SET_NO,REV_AT_EPOCH,BSTAR,MEAN_MOTION_DOT,MEAN_MOTION_DDOT
STARLINK-4177,2022-076AD,2026-06-06T09:20:47.798304,15.08831839,.00012219,53.1724,45.8977,93.1242,266.9890,0,U,53013,999,21637,.25255084E-4,.114E-5,0
STARLINK-4183,2022-076AE,2026-06-06T09:42:00.922176,15.08830728,.00012966,53.1751,45.8314,103.2374,256.8763,0,U,53014,999,21637,.30111907E-3,.4506E-4,0
STARLINK-4262,2022-076AF,2026-06-06T09:10:11.518464,15.08836800,.00011012,53.1748,45.9334,120.2351,239.8750,0,U,53015,999,21637,.51236496E-4,.528E-5,0
STARLINK-4283,2022-076AG,2026-06-06T09:26:05.690688,15.08836343,.00012311,53.1736,45.8837,89.4642,270.6491,0,U,53016,999,21637,.36995489E-4,.301E-5,0
STARLINK-4281,2022-076AH,2026-06-06T14:00:04.000032,15.49743841,.00011915,53.2132,36.3105,104.0063,105.7163,0,U,53017,999,580,.40308378E-2,.234128E-2,0
STARLINK-4279,2022-076AJ,2026-06-06T14:00:04.000032,15.45246485,.00012945,53.2169,36.3012,79.1655,74.3014,0,U,53018,999,576,.32489578E-2,.159791E-2,0
STARLINK-4282,2022-076AK,2026-06-05T23:28:53.306400,15.07998680,.00013251,53.1915,47.8206,97.0368,263.0774,0,U,53019,999,21631,.32075277E-3,.4707E-4,0
STARLINK-4287,2022-076AL,2026-06-06T09:15:29.915424,15.08831637,.00013796,53.1737,45.9125,77.0300,283.0845,0,U,53020,999,21637,.58214632E-4,.638E-5,0
STARLINK-4216,2022-076AN,2026-06-05T21:51:54.068544,15.08807084,.00012214,53.1748,48.0552,95.4892,264.6239,0,U,53022,999,21630,.33781876E-3,.5088E-4,0
STARLINK-4284,2022-076AP,2026-06-06T10:08:28.979232,15.08838670,.00012664,53.1779,45.7387,83.8335,276.2801,0,U,53023,999,21638,.26872206E-4,.14E-5,0
STARLINK-4289,2022-076AQ,2026-06-06T10:13:45.914304,15.08849259,.00015083,53.1766,45.7308,126.9006,233.2124,0,U,53024,999,21638,.53298514E-3,.8207E-4,0
STARLINK-4218,2022-076AR,2026-06-06T10:03:11.152512,15.08837000,.00012252,53.1781,45.7633,95.4790,264.6342,0,U,53025,999,21638,.68681394E-4,.805E-5,0
STARLINK-4119,2022-076AS,2026-06-06T10:09:50.624640,15.08837047,.00014652,53.1768,45.6418,64.3953,295.7190,0,U,53026,999,21638,.88229359E-4,.1116E-4,0
STARLINK-4158,2022-076AT,2026-06-06T09:47:17.326752,15.08839239,.00013661,53.1746,45.8142,94.9586,265.1561,0,U,53027,999,21638,.61693391E-4,.694E-5,0
STARLINK-4143,2022-076AV,2026-06-06T09:27:24.783840,15.08840648,.00014133,53.1740,35.8781,88.9429,271.1725,0,U,53029,999,21651,.62380068E-4,.705E-5,0
STARLINK-4160,2022-076AW,2026-06-05T23:16:43.593600,15.08824124,.00012506,53.1751,47.9780,87.4755,272.6380,0,U,53030,999,21631,.4235716E-3,.6457E-4,0
STARLINK-4137,2022-076AX,2026-06-06T09:11:30.907104,15.08841705,.00011416,53.1728,35.9269,89.0956,271.0166,0,U,53031,999,21651,.93141031E-4,.1195E-4,0
STARLINK-4115,2022-076AY,2026-06-05T21:09:31.336416,15.08836806,.0001682,53.1879,48.1812,75.2760,284.8418,0,U,53032,999,21630,.399E-4,.347E-5,0
STARLINK-4167,2022-076AZ,2026-06-06T09:16:49.163232,15.08839882,.00014541,53.1723,35.9172,66.8137,293.3007,0,U,53033,999,21651,.79206551E-4,.973E-5,0
STARLINK-4151,2022-076BA,2026-06-06T09:28:47.991360,15.08833302,.00013992,53.1751,35.9183,123.1277,236.9849,0,U,53034,999,21651,-.29924587E-4,-.764E-5,0
STARLINK-4157,2022-076BB,2026-06-06T09:06:13.089024,15.08813853,.00015791,53.1754,35.9421,86.0895,274.0277,0,U,53035,999,21651,.38321382E-3,.5812E-4,0
STARLINK-4155,2022-076BC,2026-06-05T21:53:11.720544,15.08861493,.00018719,53.1775,38.0481,144.4527,215.6590,0,U,53036,999,21644,.21135537E-3,.3079E-4,0
STARLINK-4153,2022-076BD,2026-06-06T08:55:38.356608,15.08813186,.00020336,53.1743,35.9783,101.8126,258.3094,0,U,53037,999,21651,.41081588E-3,.6251E-4,0
STARLINK-4156,2022-076BE,2026-06-06T08:50:19.559616,15.08834774,.00012779,53.1755,35.9942,87.2414,272.8724,0,U,53038,999,21651,.84559845E-4,.1058E-4,0
STARLINK-4362,2022-077A,2026-06-06T11:59:05.779680,15.05645603,.00018402,97.3993,336.9235,100.7841,259.3593,0,U,53043,999,21427,.39362631E-4,.51E-5,0
STARLINK-4350,2022-077C,2026-06-06T10:53:20.597568,15.05576794,.00007635,97.3940,338.0367,96.3922,263.7393,0,U,53045,999,21434,-.44277239E-3,-.6428E-4,0
STARLINK-4331,2022-077D,2026-06-06T11:29:09.858048,15.05646975,.00020093,97.3976,338.1579,111.4611,248.6831,0,U,53046,999,21435,-.70734089E-4,-.1078E-4,0
STARLINK-4352,2022-077E,2026-06-06T11:11:16.830528,15.05647740,.00009274,97.3994,336.9540,106.9783,253.1546,0,U,53047,999,21427,.11312415E-4,.105E-5,0
STARLINK-4355,2022-077F,2026-06-06T12:09:01.978560,15.05646954,.00014238,97.3978,338.1200,85.2049,274.9341,0,U,53048,999,21434,-.25455605E-4,-.425E-5,0
STARLINK-4345,2022-077G,2026-06-06T11:27:12.291840,15.05653714,.00018202,97.3993,336.9280,26.1902,333.9417,0,U,53049,999,21426,-.64820685E-4,-.993E-5,0
