STARLINK-4177           
1 53013U 22076AD  26157.38944211  .00000114  00000+0  25255-4 0  9990
2 53013  53.1724  45.8977 0001221  93.1242 266.9890 15.08831839216378
STARLINK-4183           
1 53014U 22076AE  26157.40417734  .00004506  00000+0  30112-3 0  9995
2 53014  53.1751  45.8314 0001296 103.2374 256.8763 15.08830728216378
STARLINK-4262           
1 53015U 22076AF  26157.38207776  .00000528  00000+0  51236-4 0  9997
2 53015  53.1748  45.9334 0001101 120.2351 239.8750 15.08836800216371
STARLINK-4283           
1 53016U 22076AG  26157.39312142  .00000301  00000+0  36995-4 0  9997
2 53016  53.1736  45.8837 0001231  89.4642 270.6491 15.08836343216376
STARLINK-4281           
1 53017U 22076AH  26157.58337963  .00234128  00000+0  40308-2 0  9994
2 53017  53.2132  36.3105 0001191 104.0063 105.7163 15.49743841  5800
STARLINK-4279           
1 53018U 22076AJ  26157.58337963  .00159791  00000+0  32490-2 0  9990
2 53018  53.2169  36.3012 0001294  79.1655  74.3014 15.45246485  5760
STARLINK-4282           
1 53019U 22076AK  26156.97839475  .00004707  00000+0  32075-3 0  9994
2 53019  53.1915  47.8206 0001325  97.0368 263.0774 15.07998680216310
STARLINK-4287           
1 53020U 22076AL  26157.38576291  .00000638  00000+0  58215-4 0  9990
2 53020  53.1737  45.9125 0001379  77.0300 283.0845 15.08831637216372
STARLINK-4216           
1 53022U 22076AN  26156.91104246  .00005088  00000+0  33782-3 0  9992
2 53022  53.1748  48.0552 0001221  95.4892 264.6239 15.08807084216304
STARLINK-4284           
1 53023U 22076AP  26157.42255763  .00000140  00000+0  26872-4 0  9998
2 53023  53.1779  45.7387 0001266  83.8335 276.2801 15.08838670216388
STARLINK-4289           
1 53024U 22076AQ  26157.42622586  .00008207  00000+0  53299-3 0  9994
2 53024  53.1766  45.7308 0001508 126.9006 233.2124 15.08849259216387
STARLINK-4218           
1 53025U 22076AR  26157.41887908  .00000805  00000+0  68681-4 0  9993
2 53025  53.1781  45.7633 0001225  95.4790 264.6342 15.08837000216383
STARLINK-4119           
1 53026U 22076AS  26157.42350260  .00001116  00000+0  88229-4 0  9997
2 53026  53.1768  45.6418 0001465  64.3953 295.7190 15.08837047216388
STARLINK-4158           
1 53027U 22076AT  26157.40783943  .00000694  00000+0  61693-4 0  9990
2 53027  53.1746  45.8142 0001366  94.9586 265.1561 15.08839239216380
STARLINK-4143           
1 53029U 22076AV  26157.39403685  .00000705  00000+0  62380-4 0  9999
2 53029  53.1740  35.8781 0001413  88.9429 271.1725 15.08840648216516
STARLINK-4160           
1 53030U 22076AW  26156.96994900  .00006457  00000+0  42357-3 0  9999
2 53030  53.1751  47.9780 0001250  87.4755 272.6380 15.08824124216310
STARLINK-4137           
1 53031U 22076AX  26157.38299661  .00001195  00000+0  93141-4 0  9991
2 53031  53.1728  35.9269 0001141  89.0956 271.0166 15.08841705216515
STARLINK-4115           
1 53032U 22076AY  26156.88161269  .00000347  00000+0  39900-4 0  9999
2 53032  53.1879  48.1812 0001682  75.2760 284.8418 15.08836806216308
STARLINK-4167           
1 53033U 22076AZ  26157.38668013  .00000973  00000+0  79207-4 0  9994
2 53033  53.1723  35.9172 0001454  66.8137 293.3007 15.08839882216510
STARLINK-4151           
1 53034U 22076BA  26157.39499990 -.00000764  00000+0 -29925-4 0  9994
2 53034  53.1751  35.9183 0001399 123.1277 236.9849 15.08833302216512
STARLINK-4157           
1 53035U 22076BB  26157.37931816  .00005812  00000+0  38321-3 0  9997
2 53035  53.1754  35.9421 0001579  86.0895 274.0277 15.08813853216511
STARLINK-4155           
1 53036U 22076BC  26156.91194121  .00003079  00000+0  21136-3 0  9996
2 53036  53.1775  38.0481 0001871 144.4527 215.6590 15.08861493216445
STARLINK-4153           
1 53037U 22076BD  26157.37197172  .00006251  00000+0  41082-3 0  9994
2 53037  53.1743  35.9783 0002033 101.8126 258.3094 15.08813186216512
STARLINK-4156           
1 53038U 22076BE  26157.36828194  .00001058  00000+0  84560-4 0  9998
2 53038  53.1755  35.9942 0001277  87.2414 272.8724 15.08834774216516
STARLINK-4362           
1 53043U 22077A   26157.49937245  .00000510  00000+0  39363-4 0  9990
2 53043  97.3993 336.9235 0001840 100.7841 259.3593 15.05645603214279
STARLINK-4350           
1 53045U 22077C   26157.45371062 -.00006428  00000+0 -44277-3 0  9992
2 53045  97.3940 338.0367 0000763  96.3922 263.7393 15.05576794214344
STARLINK-4331           
1 53046U 22077D   26157.47858632 -.00001078  00000+0 -70734-4 0  9992
2 53046  97.3976 338.1579 0002009 111.4611 248.6831 15.05646975214358
STARLINK-4352           
1 53047U 22077E   26157.46616702  .00000105  00000+0  11312-4 0  9997
2 53047  97.3994 336.9540 0000927 106.9783 253.1546 15.05647740214275
STARLINK-4355           
1 53048U 22077F   26157.50627290 -.00000425  00000+0 -25456-4 0  9998
2 53048  97.3978 338.1200 0001423  85.2049 274.9341 15.05646954214349
STARLINK-4345           
1 53049U 22077G   26157.47722560 -.00000993  00000+0 -64821-4 0  9990
2 53049  97.3993 336.9280 0001820  26.1902 333.9417 15.05653714214267
